IRIDIUM 155             
1 43573U 18061E   23150.74508469  .00000166  00000+0  52327-4 0  9997
2 43573  86.3977 162.0426 0002542  86.9419 273.2068 14.34218197253766
IRIDIUM 154             
1 43574U 18061F   23150.93535768  .00000161  00000+0  50341-4 0  9990
2 43574  86.3981 162.0424 0002343  96.1825 263.9637 14.34217008253840
IRIDIUM 163             
1 43575U 18061G   23150.77679624  .00000164  00000+0  51365-4 0  9993
2 43575  86.3977 162.0586 0002223  93.1697 266.9753 14.34219417253798
IRIDIUM 156             
1 43576U 18061H   23150.96072502  .00000158  00000+0  49384-4 0  9998
2 43576  86.3978 161.9875 0002388  84.3614 275.7854 14.34217802253811
IRIDIUM 164             
1 43577U 18061J   23150.94169490  .00000148  00000+0  45856-4 0  9999
2 43577  86.3979 162.0185 0002155  92.6657 267.4786 14.34217715253859
IRIDIUM 159             
1 43578U 18061K   23150.56114606  .00000152  00000+0  47264-4 0  9997
2 43578  86.3978 162.1379 0002411  92.3403 267.8069 14.34218372253764
IRIDIUM 180             
1 43922U 19002A   23150.90947077  .00000273  00000+0  90334-4 0  9990
2 43922  86.3955  98.8882 0002210  88.6620 271.4829 14.34220909229422
IRIDIUM 176             
1 43923U 19002B   23150.91577964  .00000959  00000+0  14801-3 0  9991
2 43923  86.6085  98.9246 0002585  85.4926 274.6586 14.72283496235451
IRIDIUM 168             
1 43924U 19002C   23150.90312945  .00000276  00000+0  91456-4 0  9991
2 43924  86.3956  98.9366 0002279  89.2954 270.8503 14.34220439229403
IRIDIUM 173             
1 43925U 19002D   23150.89045267  .00000277  00000+0  91726-4 0  9991
2 43925  86.3953  98.8763 0002268  89.3869 270.7587 14.34218611229382
IRIDIUM 169             
1 43926U 19002E   23150.94257005  .00000294  00000+0  89413-4 0  9992
2 43926  86.4209 130.4697 0005722  65.3914 294.7880 14.38612474230170
IRIDIUM 172             
1 43927U 19002F   23150.88410707  .00000273  00000+0  90572-4 0  9991
2 43927  86.3953  98.8837 0002335  86.9127 273.2335 14.34219122229399
IRIDIUM 175             
1 43928U 19002G   23150.90944592  .00000983  00000+0  15187-3 0  9995
2 43928  86.1504  93.7210 0002430  86.9196 273.2298 14.72265443235441
IRIDIUM 171             
1 43929U 19002H   23150.93484991  .00000272  00000+0  90179-4 0  9997
2 43929  86.3963  99.0452 0002252  89.6349 270.5104 14.34218804229392
IRIDIUM 170             
1 43930U 19002J   23150.92200857  .00000942  00000+0  14548-3 0  9994
2 43930  86.6087  98.9272 0002569  88.8986 271.2526 14.72277539235464
IRIDIUM 167             
1 43931U 19002K   23150.92850084  .00000270  00000+0  89417-4 0  9990
2 43931  86.3955  98.8776 0002168  90.5396 269.6049 14.34220339229394
IRIDIUM 181             
1 56726U 23068S   23150.45806471  .00000538  00000+0  67231-4 0  9999
2 56726  86.6756 136.2255 0002046 122.2918 237.8502 14.80330861  1616
IRIDIUM 177             
1 56727U 23068T   23150.72289552  .00000548  00000+0  67024-4 0  9996
2 56727  86.6748 136.1086 0004789 162.3303 197.8087 14.81190319  1658
IRIDIUM 174             
1 56728U 23068U   23150.92396677  .00000629  00000+0  77579-4 0  9992
2 56728  86.6801 136.0311 0004758 160.4744 199.6661 14.81180239  1684
IRIDIUM 178             
1 56729U 23068V   23150.91433476  .00000552  00000+0  63385-4 0  9996
2 56729  86.6744 136.0177 0015196 178.3353 181.7924 14.83707219  1682
IRIDIUM 179             
1 56730U 23068W   23150.91400429  .00000620  00000+0  71535-4 0  9992
2 56730  86.6783 136.0229 0015363 177.7316 182.3980 14.83755814  1686
